FENGYUN 1C DEB          
1 31647U 99025CBD 17345.56223760  .00001652  00000-0  86875-3 0  9998
2 31647  98.0665 263.2405 0180110 343.4139  16.1188 14.07280596227959
